{
  "norad_id": 65478,
  "name": "STARLINK-35093",
  "history": [
    {
      "epoch": "2026-03-28T11:43:50.102112",
      "apogee_km": 475.92735728965727,
      "perigee_km": 474.4788353269014,
      "latitude_deg": -1.2477622258363794,
      "longitude_deg": 54.72233568015508,
      "semi_major_axis_km": 6853.340096308279,
      "eccentricity": 0.00010568,
      "inclination_deg": 53.1614,
      "raan_deg": 170.7302,
      "arg_perigee_deg": 84.7886,
      "mean_anomaly_deg": 275.3235,
      "mean_motion_rev_day": 15.3020401
    }
  ]
}